OBJECT_NAME,OBJECT_ID,EPOCH,MEAN_MOTION,ECCENTRICITY,INCLINATION,RA_OF_ASC_NODE,ARG_OF_PERICENTER,MEAN_ANOMALY,EPHEMERIS_TYPE,CLASSIFICATION_TYPE,NORAD_CAT_ID,ELEMENT_SET_NO,REV_AT_EPOCH,BSTAR,MEAN_MOTION_DOT,MEAN_MOTION_DDOT
H-2A R/B,2006-002B,2026-07-11T08:59:16.437984,15.18407590,.00505742,98.2582,350.4005,178.9682,181.1663,0,U,28932,999,11319,.25811277E-3,.5406E-4,0
RESURS-DK 1,2006-021A,2026-07-11T14:59:58.583040,15.13311404,.0006915,69.9312,276.2899,275.2250,84.8127,0,U,29228,999,10627,.6271749E-4,.1011E-4,0
CZ-4B R/B,2006-046C,2026-07-11T17:03:10.790784,15.17964077,.0032233,97.5444,237.2421,194.3231,165.7093,0,U,29507,999,7885,.11791996E-3,.2355E-4,0
CZ-2C R/B,2007-010B,2026-07-11T18:53:43.542528,14.20281258,.00578339,98.4116,299.9374,293.8801,65.6324,0,U,31114,999,99733,.25423189E-4,.14E-6,0
COSMO-SKYMED 1,2007-023A,2026-07-11T19:07:35.706720,14.97209471,.00011513,97.8843,24.8609,101.0454,259.0897,0,U,31598,999,3347,.11737749E-3,.1298E-4,0
COSMOS 2428,2007-029A,2026-07-11T15:20:16.054944,14.12932455,.00071784,70.9382,303.1376,88.1796,272.0147,0,U,31792,999,98160,.1195521E-3,.175E-5,0
SL-16 R/B,2007-029B,2026-07-11T15:37:40.598976,14.14850744,.00020413,70.9748,271.8031,256.6911,209.7663,0,U,31793,999,98290,.23493934E-4,-.3E-7,0
KORONAS-FOTON,2009-003A,2026-07-11T06:52:03.392832,15.46234635,.00123965,82.4297,147.1115,74.3126,285.9489,0,U,33504,999,96482,.16035444E-3,.7945E-4,0
CZ-2C R/B,2011-030B,2026-07-11T18:15:52.727616,14.81528255,.00509932,97.8668,147.7064,307.6173,115.1153,0,U,37731,999,80846,.7749941E-4,.566E-5,0
H-2A R/B,2012-025E,2026-07-11T12:09:51.581664,14.95831982,.00423253,98.4849,169.6614,267.6471,91.9901,0,U,38341,999,76672,.85784548E-4,.903E-5,0
SHIJIAN-16 (SJ-16),2013-057A,2026-07-11T18:30:11.746656,14.92667078,.00159492,74.9735,310.1200,173.2082,186.9326,0,U,39358,999,69001,.12426893E-3,.1255E-4,0
SL-4 R/B,2014-021B,2026-07-11T02:30:31.355712,15.42429106,.00898822,51.6060,93.5584,193.4185,166.4409,0,U,39679,999,67530,.12262198E-3,.5764E-4,0
ALOS-2,2014-029A,2026-07-11T01:56:55.564224,14.79474805,.00016254,97.9222,288.9034,93.1254,267.0143,0,U,39766,999,65511,.62361964E-4,.414E-5,0
YAOGAN-29,2015-069A,2026-07-11T19:17:02.094144,14.83103352,.00010544,98.0028,221.4738,17.1612,342.9637,0,U,41038,999,57427,-.36266913E-4,-.349E-5,0
ASTRO-H (HITOMI),2016-012A,2026-07-11T10:00:34.519680,15.10623257,.00095739,30.9994,277.6935,137.3545,222.7837,0,U,41337,999,57095,.8971969E-4,.1617E-4,0
HXMT (HUIYAN),2017-034A,2026-07-11T17:37:06.256416,15.18669914,.00326119,43.0150,46.3381,299.6460,60.1143,0,U,42758,999,50139,.14825742E-3,.2925E-4,0
SAOCOM 1A,2018-076A,2026-07-11T18:39:25.403040,14.82145511,.00014754,97.8892,19.1692,84.0244,276.1137,0,U,43641,999,41974,.2056842E-5,-.36E-6,0
H-2A R/B,2018-084L,2026-07-11T15:56:38.628672,15.46108710,.00206815,98.8545,76.9186,313.6402,46.3127,0,U,43682,999,42490,.25576153E-3,.12507E-3,0
SAOCOM 1B,2020-059A,2026-07-11T19:24:23.567904,14.82157422,.00015613,97.8894,18.2960,81.9147,278.2244,0,U,46265,999,31713,.74592446E-4,.542E-5,0
CSS (TIANHE),2021-035A,2026-07-11T15:00:35.317728,15.58019839,.00025345,41.4689,173.4699,289.9919,70.0645,0,U,48274,999,29698,.21991574E-4,.1368E-4,0
COSMOS 2550,2021-056A,2026-07-11T19:16:38.144064,15.33804648,.00084484,67.1434,25.4439,270.6833,89.3354,0,U,48865,999,28249,.24270541E-4,.606E-5,0
CZ-2C R/B,2022-058K,2026-07-10T23:09:40.279392,15.63611371,.00305522,50.1860,39.6356,5.0347,355.0929,0,U,52794,999,22936,.29996429E-3,.28709E-3,0
CZ-2C R/B,2022-132E,2026-07-11T13:55:27.213312,15.74627248,.00101357,97.2899,200.7470,357.5073,2.6140,0,U,54039,999,20978,.29532847E-3,.43213E-3,0
GSLV R/B,2022-138AN,2026-07-11T18:41:08.440224,14.97372938,.00238485,87.3818,124.7266,63.4270,296.9402,0,U,54149,999,20249,.12284545E-3,.1464E-4,0
XRISM,2023-137A,2026-07-11T09:49:09.931008,15.12653502,.00078384,31.0007,202.6776,208.6647,151.3561,0,U,57800,999,15653,.12033873E-3,.2256E-4,0
ACS3,2024-077B,2026-07-11T09:09:59.791392,13.95362059,.0119151,97.1715,105.8020,41.5448,319.4699,0,U,59588,999,11141,.41134877E-2,.5886E-4,0
SPACEMOBILE-003,2024-163A,2026-07-10T09:58:38.004096,15.20785714,.00057911,52.9615,202.6161,185.1427,174.9508,0,U,61045,999,10130,.10926696E-4,-.84E-6,0
SPACEMOBILE-005,2024-163B,2026-07-11T10:49:01.909056,15.20765383,.00088948,52.9788,197.8076,184.8633,175.2276,0,U,61046,999,10145,.15154729E-3,.3056E-4,0
SPACEMOBILE-001,2024-163C,2026-07-10T01:39:25.476768,15.20815495,.00075534,52.9749,203.8741,178.7608,181.3406,0,U,61047,999,10124,.37894656E-4,.518E-5,0
SPACEMOBILE-002,2024-163D,2026-07-11T00:55:48.887328,15.20841812,.00066201,52.9623,199.4399,180.9990,179.0992,0,U,61048,999,10139,.38280824E-3,.8243E-4,0
